{"type": "FeatureCollection", "features": [ {"type": "Feature", "properties": {"norad_id": 45344, "name": "BEIDOU-3 G2 (C60)", "group": "gnss", "lat": -0.05944595186454608, "lon": 42.09945078687531, "alt_km": 35784.928859485735, "timestamp": "2025-12-16T15:45:51.289308+00:00", "meta": {"OBJECT_NAME": "BEIDOU-3 G2 (C60)", "OBJECT_ID": "2020-017A", "EPOCH": "2025-12-15T22:19:44.846688", "MEAN_MOTION": 1.00273143, "ECCENTRICITY": 0.00043871, "INCLINATION": 2.5031, "RA_OF_ASC_NODE": 43.9298, "ARG_OF_PERICENTER": 270.8917, "MEAN_ANOMALY": 184.9901, "EPHEMERIS_TYPE": 0, "CLASSIFICATION_TYPE": "U", "NORAD_CAT_ID": 45344, "ELEMENT_SET_NO": 999, "REV_AT_EPOCH": 2142, "BSTAR": 0, "MEAN_MOTION_DOT": -1.2e-06, "MEAN_MOTION_DDOT": 0}, "tle": {"line1": "1 45344U 20017A   25349.93038017 -.00000120  00000+0  00000+0 0  9996", "line2": "2 45344   2.5031  43.9298 0004387 270.8917 184.9901  1.00273143 21426"}}, "geometry": {"type": "Point", "coordinates": [42.09945078687531, -0.05944595186454608]}}, {"type": "Feature", "properties": {"norad_id": 45358, "name": "COSMOS 2545 (760)", "group": "gnss", "lat": -17.59533149397668, "lon": -49.89894946057598, "alt_km": 19133.233936424887, "timestamp": "2025-12-16T15:45:51.289324+00:00", "meta": {"OBJECT_NAME": "COSMOS 2545 (760)", "OBJECT_ID": "2020-018A", "EPOCH": "2025-12-14T19:19:41.135808", "MEAN_MOTION": 2.13102428, "ECCENTRICITY": 0.00117069, "INCLINATION": 64.4681, "RA_OF_ASC_NODE": 318.8965, "ARG_OF_PERICENTER": 249.0608, "MEAN_ANOMALY": 110.81, "EPHEMERIS_TYPE": 0, "CLASSIFICATION_TYPE": "U", "NORAD_CAT_ID": 45358, "ELEMENT_SET_NO": 999, "REV_AT_EPOCH": 4473, "BSTAR": 0, "MEAN_MOTION_DOT": -6.9e-07, "MEAN_MOTION_DDOT": 0}, "tle": {"line1": "1 45358U 20018A   25348.80533722 -.00000069  00000+0  00000+0 0  9992", "line2": "2 45358  64.4681 318.8965 0011706 249.0608 110.8100  2.13102428 44732"}}, "geometry": {"type": "Point", "coordinates": [-49.89894946057598, -17.59533149397668]}}, {"type": "Feature", "properties": {"norad_id": 45807, "name": "BEIDOU-3 G3 (C61)", "group": "gnss", "lat": 0.23475301112015448, "lon": 72.63470887931088, "alt_km": 35771.60399037648, "timestamp": "2025-12-16T15:45:51.289338+00:00", "meta": {"OBJECT_NAME": "BEIDOU-3 G3 (C61)", "OBJECT_ID": "2020-040A", "EPOCH": "2025-12-15T22:28:29.009568", "MEAN_MOTION": 1.00272652, "ECCENTRICITY": 0.00063409, "INCLINATION": 1.9989, "RA_OF_ASC_NODE": 66.611, "ARG_OF_PERICENTER": 308.2444, "MEAN_ANOMALY": 157.6773, "EPHEMERIS_TYPE": 0, "CLASSIFICATION_TYPE": "U", "NORAD_CAT_ID": 45807, "ELEMENT_SET_NO": 999, "REV_AT_EPOCH": 2023, "BSTAR": 0, "MEAN_MOTION_DOT": -3.33e-06, "MEAN_MOTION_DDOT": 0}, "tle": {"line1": "1 45807U 20040A   25349.93644687 -.00000333  00000+0  00000+0 0  9998", "line2": "2 45807   1.9989  66.6110 0006340 308.2444 157.6773  1.00272652 20238"}}, "geometry": {"type": "Point", "coordinates": [72.63470887931088, 0.23475301112015448]}}, {"type": "Feature", "properties": {"norad_id": 45854, "name": "GPS BIII-3  (PRN 23)", "group": "gnss", "lat": -49.9675275478903, "lon": -15.787837571170849, "alt_km": 20186.34177473345, "timestamp": "2025-12-16T15:45:51.289350+00:00", "meta": {"OBJECT_NAME": "GPS BIII-3  (PRN 23)", "OBJECT_ID": "2020-041A", "EPOCH": "2025-12-15T00:47:17.642112", "MEAN_MOTION": 2.00562009, "ECCENTRICITY": 0.00605565, "INCLINATION": 56.5486, "RA_OF_ASC_NODE": 36.096, "ARG_OF_PERICENTER": 203.5023, "MEAN_ANOMALY": 356.6699, "EPHEMERIS_TYPE": 0, "CLASSIFICATION_TYPE": "U", "NORAD_CAT_ID": 45854, "ELEMENT_SET_NO": 999, "REV_AT_EPOCH": 4034, "BSTAR": 0, "MEAN_MOTION_DOT": -9.1e-07, "MEAN_MOTION_DDOT": 0}, "tle": {"line1": "1 45854U 20041A   25349.03284308 -.00000091  00000+0  00000+0 0  9993", "line2": "2 45854  56.5486  36.0960 0060556 203.5023 356.6699  2.00562009 40342"}}, "geometry": {"type": "Point", "coordinates": [-15.787837571170849, -49.9675275478903]}}, {"type": "Feature", "properties": {"norad_id": 46114, "name": "GALAXY 30 (WAAS/PRN 135)", "group": "gnss", "lat": -0.015654063906289338, "lon": -163.0225551158776, "alt_km": 35782.417847234276, "timestamp": "2025-12-16T15:45:51.289362+00:00", "meta": {"OBJECT_NAME": "GALAXY 30 (WAAS/PRN 135)", "OBJECT_ID": "2020-056C", "EPOCH": "2025-12-15T21:20:57.976224", "MEAN_MOTION": 1.00271624, "ECCENTRICITY": 0.00020781, "INCLINATION": 0.0181, "RA_OF_ASC_NODE": 4.1804, "ARG_OF_PERICENTER": 258.2613, "MEAN_ANOMALY": 17.591, "EPHEMERIS_TYPE": 0, "CLASSIFICATION_TYPE": "U", "NORAD_CAT_ID": 46114, "ELEMENT_SET_NO": 999, "REV_AT_EPOCH": 1945, "BSTAR": 0, "MEAN_MOTION_DOT": 5.9e-07, "MEAN_MOTION_DDOT": 0}, "tle": {"line1": "1 46114U 20056C   25349.88955991  .00000059  00000+0  00000+0 0  9998", "line2": "2 46114   0.0181   4.1804 0002078 258.2613  17.5910  1.00271624 19454"}}, "geometry": {"type": "Point", "coordinates": [-163.0225551158776, -0.015654063906289338]}}, {"type": "Feature", "properties": {"norad_id": 46805, "name": "COSMOS 2547 (705K)", "group": "gnss", "lat": -14.462110876358718, "lon": 25.610005301187368, "alt_km": 19119.001728277817, "timestamp": "2025-12-16T15:45:51.289375+00:00", "meta": {"OBJECT_NAME": "COSMOS 2547 (705K)", "OBJECT_ID": "2020-075A", "EPOCH": "2025-12-15T22:22:03.065088", "MEAN_MOTION": 2.13100081, "ECCENTRICITY": 0.00062311, "INCLINATION": 64.5961, "RA_OF_ASC_NODE": 198.5898, "ARG_OF_PERICENTER": 228.6409, "MEAN_ANOMALY": 131.3861, "EPHEMERIS_TYPE": 0, "CLASSIFICATION_TYPE": "U", "NORAD_CAT_ID": 46805, "ELEMENT_SET_NO": 999, "REV_AT_EPOCH": 4000, "BSTAR": 0, "MEAN_MOTION_DOT": 1.08e-06, "MEAN_MOTION_DDOT": 0}, "tle": {"line1": "1 46805U 20075A   25349.93197992  .00000108  00000+0  00000+0 0  9996", "line2": "2 46805  64.5961 198.5898 0006231 228.6409 131.3861  2.13100081 40000"}}, "geometry": {"type": "Point", "coordinates": [25.610005301187368, -14.462110876358718]}}, {"type": "Feature", "properties": {"norad_id": 46826, "name": "GPS BIII-4  (PRN 14)", "group": "gnss", "lat": -53.6428231089253, "lon": 118.77944857825563, "alt_km": 20103.210687445884, "timestamp": "2025-12-16T15:45:51.289387+00:00", "meta": {"OBJECT_NAME": "GPS BIII-4  (PRN 14)", "OBJECT_ID": "2020-078A", "EPOCH": "2025-12-15T00:45:28.777248", "MEAN_MOTION": 2.00566873, "ECCENTRICITY": 0.00647232, "INCLINATION": 54.0146, "RA_OF_ASC_NODE": 218.2479, "ARG_OF_PERICENTER": 203.3837, "MEAN_ANOMALY": 326.9194, "EPHEMERIS_TYPE": 0, "CLASSIFICATION_TYPE": "U", "NORAD_CAT_ID": 46826, "ELEMENT_SET_NO": 999, "REV_AT_EPOCH": 3781, "BSTAR": 0, "MEAN_MOTION_DOT": 5.5e-07, "MEAN_MOTION_DDOT": 0}, "tle": {"line1": "1 46826U 20078A   25349.03158307  .00000055  00000+0  00000+0 0  9991", "line2": "2 46826  54.0146 218.2479 0064723 203.3837 326.9194  2.00566873 37819"}}, "geometry": {"type": "Point", "coordinates": [118.77944857825563, -53.6428231089253]}}, {"type": "Feature", "properties": {"norad_id": 48859, "name": "GPS BIII-5  (PRN 11)", "group": "gnss", "lat": 55.22134776404602, "lon": 67.74298805668775, "alt_km": 20230.27520768098, "timestamp": "2025-12-16T15:45:51.289398+00:00", "meta": {"OBJECT_NAME": "GPS BIII-5  (PRN 11)", "OBJECT_ID": "2021-054A", "EPOCH": "2025-12-08T04:14:32.423424", "MEAN_MOTION": 2.00553627, "ECCENTRICITY": 0.0024678, "INCLINATION": 55.2581, "RA_OF_ASC_NODE": 340.1367, "ARG_OF_PERICENTER": 233.3994, "MEAN_ANOMALY": 212.8593, "EPHEMERIS_TYPE": 0, "CLASSIFICATION_TYPE": "U", "NORAD_CAT_ID": 48859, "ELEMENT_SET_NO": 999, "REV_AT_EPOCH": 3292, "BSTAR": 0, "MEAN_MOTION_DOT": -8.6e-07, "MEAN_MOTION_DDOT": 0}, "tle": {"line1": "1 48859U 21054A   25342.17676416 -.00000086  00000+0  00000+0 0  9993", "line2": "2 48859  55.2581 340.1367 0024678 233.3994 212.8593  2.00553627 32922"}}, "geometry": {"type": "Point", "coordinates": [67.74298805668775, 55.22134776404602]}}, {"type": "Feature", "properties": {"norad_id": 49336, "name": "QZS-1R (QZSS/PRN 196)", "group": "gnss", "lat": 13.35462236604914, "lon": 100.5627490259235, "alt_km": 36720.88269898622, "timestamp": "2025-12-16T15:45:51.289410+00:00", "meta": {"OBJECT_NAME": "QZS-1R (QZSS/PRN 196)", "OBJECT_ID": "2021-096A", "EPOCH": "2025-12-15T14:04:19.286112", "MEAN_MOTION": 1.00256896, "ECCENTRICITY": 0.07559117, "INCLINATION": 37.0835, "RA_OF_ASC_NODE": 82.3168, "ARG_OF_PERICENTER": 271.3828, "MEAN_ANOMALY": 76.4779, "EPHEMERIS_TYPE": 0, "CLASSIFICATION_TYPE": "U", "NORAD_CAT_ID": 49336, "ELEMENT_SET_NO": 999, "REV_AT_EPOCH": 1516, "BSTAR": 0, "MEAN_MOTION_DOT": -2.8e-06, "MEAN_MOTION_DDOT": 0}, "tle": {"line1": "1 49336U 21096A   25349.58633433 -.00000280  00000+0  00000+0 0  9990", "line2": "2 49336  37.0835  82.3168 0755911 271.3828  76.4779  1.00256896 15160"}}, "geometry": {"type": "Point", "coordinates": [100.5627490259235, 13.35462236604914]}}, {"type": "Feature", "properties": {"norad_id": 49809, "name": "GSAT0223 (GALILEO 27)", "group": "gnss", "lat": 44.85466132497241, "lon": 26.491043868886496, "alt_km": 23229.933899418356, "timestamp": "2025-12-16T15:45:51.289422+00:00", "meta": {"OBJECT_NAME": "GSAT0223 (GALILEO 27)", "OBJECT_ID": "2021-116A", "EPOCH": "2025-12-10T02:39:25.687008", "MEAN_MOTION": 1.70475768, "ECCENTRICITY": 0.000463, "INCLINATION": 57.2198, "RA_OF_ASC_NODE": 346.7831, "ARG_OF_PERICENTER": 251.6037, "MEAN_ANOMALY": 107.9349, "EPHEMERIS_TYPE": 0, "CLASSIFICATION_TYPE": "U", "NORAD_CAT_ID": 49809, "ELEMENT_SET_NO": 999, "REV_AT_EPOCH": 2495, "BSTAR": 0, "MEAN_MOTION_DOT": -8.7e-07, "MEAN_MOTION_DDOT": 0}, "tle": {"line1": "1 49809U 21116A   25344.11071397 -.00000087  00000+0  00000+0 0  9992", "line2": "2 49809  57.2198 346.7831 0004630 251.6037 107.9349  1.70475768 24951"}}, "geometry": {"type": "Point", "coordinates": [26.491043868886496, 44.85466132497241]}}]}